FLOCK 4G-8              
1 62613U 25009E   26068.72381419  .00013559  00000+0  50438-3 0  9996
2 62613  97.4045 151.2834 0003050 315.2538  44.8455 15.27623414 63721
STARLINK-32878          
1 62892U 25024P   26068.09599059  .00003959  00000+0  15336-3 0  9994
2 62892  43.0033 328.8511 0002716 258.6168 101.4379 15.27569647 62175
